satname,norad_id,inclination_deg,eccentricity,mean_motion_rev_per_day,perigee_km,apogee_km,l1,l2
STARLINK-1316,45415,53.1548,0.0006539,15.36593393,451.72280245258753,460.66073761804,1 45415U 20019BH  26138.47892699  .00024332  00000+0  67943-3 0  9990,2 45415  53.1548 163.5255 0006539   7.5672 352.5429 15.36593393340705
STARLINK-1286,45417,53.0446,0.0004507,15.56723161,394.0946129891636,400.2018550991306,1 45417U 20019BK  26138.59096206  .00176239  00000+0  23756-2 0  9992,2 45417  53.0446 153.3963 0004507  10.8223 349.2884 15.56723161341099
STARLINK-1308,45419,53.0473,0.000836,15.63161976,372.88149499069186,384.1786423294916,1 45419U 20019BM  26138.38815205  .00061223  00000+0  65786-3 0  9995,2 45419  53.0473 174.0938 0008360 339.0584  21.0086 15.63161976340535
STARLINK-1329,45531,53.0429,0.0005117,15.70459489,354.136184958119,361.02952065548106,1 45531U 20025A   26138.59962573  .00040629  00000+0  32801-3 0  9990,2 45531  53.0429  97.8447 0005117  69.3862 290.7703 15.70459489336406
STARLINK-1338,45532,53.0443,0.0004683,15.65718338,368.01291755700004,374.33432188342977,1 45532U 20025B   26138.30439309  .00031346  00000+0  30856-3 0  9990,2 45532  53.0443 105.1882 0004683  43.0243 317.1137 15.65718338336273
STARLINK-1350,45535,53.0714,0.0001527,15.37757313,451.6996824326043,453.7858331106272,1 45535U 20025E   26138.82309407  .00014380  00000+0  39171-3 0  9993,2 45535  53.0714  63.3282 0001527  61.2582 298.8575 15.37757313336948
STARLINK-1362,45538,53.1571,0.000323,15.35017241,458.66028561945586,463.0782836793396,1 45538U 20025H   26138.69918903 -.00124903  00000+0 -36731-2 0  9991,2 45538  53.1571 134.6717 0003230  68.5277 291.6070 15.35017241335916
STARLINK-1368,45540,53.1564,0.0004521,15.35444532,456.50908999838157,462.69177218357345,1 45540U 20025K   26138.71297714  .00034138  00000+0  98352-3 0  9993,2 45540  53.1564 134.9804 0004521  49.4623 310.6773 15.35444532335906
STARLINK-1371,45542,53.0446,0.000689,15.58454552,387.46451380404596,396.7939406651749,1 45542U 20025M   26138.89458792  .00076078  00000+0  97639-3 0  9995,2 45542  53.0446 111.0154 0006890  47.8282 312.3314 15.58454552336240
STARLINK-1372,45543,53.156,0.0004412,15.35911088,455.19945207429646,461.2318496534199,1 45543U 20025N   26138.28796507  .00035600  00000+0  10098-2 0  9997,2 45543  53.1560 136.5452 0004412  39.8490 320.2837 15.35911088334942
STARLINK-1373,45544,53.045,0.000434,15.67388913,363.44988917076626,369.3041273299277,1 45544U 20025P   26138.21893119  .00033421  00000+0  30726-3 0  9998,2 45544  53.0450 111.1190 0004340  21.3914 338.7282 15.67388913336181
STARLINK-1327,45555,53.0417,0.0005234,15.65172946,369.20800529602184,376.27482482090454,1 45555U 20025AA  26138.91668981 -.00017306  00000+0 -16648-3 0  9997,2 45555  53.0417  84.4979 0005234  29.6962 245.2516 15.65172946  5944
STARLINK-1356,45564,53.0469,0.0003525,15.55104526,399.4588572122375,404.2387472027931,1 45564U 20025AK  26138.61629440  .00078600  00000+0  11427-2 0  9992,2 45564  53.0469  98.1898 0003525  35.2332 324.8911 15.55104526336395
STARLINK-1357,45565,53.0461,0.0007686,15.66989297,362.33890892783074,372.708338438556,1 45565U 20025AL  26138.50242794  .00035842  00000+0  33408-3 0  9999,2 45565  53.0461  56.7171 0007686  61.9789 298.2003 15.66989297336974
STARLINK-1361,45567,53.0446,0.000211,15.58812772,389.6636614354484,392.52027606025877,1 45567U 20025AN  26138.94228028  .00077213  00000+0  97827-3 0  9996,2 45567  53.0446  95.0106 0002110  33.3444 326.7700 15.58812772336471
STARLINK-1363,45568,53.0314,0.000316,16.04492213,259.8975234434747,264.0940873764939,1 45568U 20025AP  26138.92897546  .00357799  69073-4  52675-3 0  9994,2 45568  53.0314  40.9313 0003160 217.2144 142.8669 16.04492213337211
STARLINK-1366,45569,53.0334,0.0001265,15.98390335,278.0421596649139,279.72638604694566,1 45569U 20025AQ  26138.91668981  .00206721  28572-4  43774-3 0  9990,2 45569  53.0334  43.1034 0001265 211.6298  72.4188 15.98390335  5930
STARLINK-1376,45570,53.1575,0.0005639,15.36291723,453.23202861763184,460.9407935806694,1 45570U 20025AR  26138.65980958  .00034226  00000+0  95953-3 0  9990,2 45570  53.1575 111.2550 0005639  44.0973 316.0479 15.36291723336230
STARLINK-1320,45572,53.0442,0.0003872,15.81153272,324.58184268439345,329.7744387293578,1 45572U 20025AT  26138.86797751  .00084650  00000+0  42253-3 0  9993,2 45572  53.0442 356.2321 0003872 238.8490 121.2152 15.81153272337865
STARLINK-1321,45573,53.0433,0.0005704,15.59784373,384.4210443398324,392.14017354811494,1 45573U 20025AU  26138.25912897  .00037322  00000+0  46103-3 0  9999,2 45573  53.0433  82.3740 0005704  58.0034 302.1532 15.59784373336284
STARLINK-1331,45578,53.0478,0.0006503,15.59607209,384.3924866678799,393.1935558535306,1 45578U 20025AZ  26138.92107184  .00073174  00000+0  89973-3 0  9990,2 45578  53.0478  86.0191 0006503  40.5952 319.5544 15.59607209336605
STARLINK-1333,45580,53.1563,0.000333,15.33281144,463.7516302105432,468.3098459240964,1 45580U 20025BB  26138.21176990  .00033567  00000+0  10360-2 0  9991,2 45580  53.1563 114.4275 0003330  63.1049 297.0293 15.33281144336155
STARLINK-1335,45581,53.1552,0.000469,15.34818147,458.25293005178537,464.6684726956755,1 45581U 20025BC  26138.65308224  .00031485  00000+0  92648-3 0  9994,2 45581  53.1552 109.3187 0004690  59.3393 300.8071 15.34818147336256
STARLINK-1337,45582,53.0472,0.0007423,15.71426343,349.8218308957066,359.81757841944,1 45582U 20025BD  26138.92729513  .00047562  00000+0  36742-3 0  9999,2 45582  53.0472  77.0204 0007423  48.8825 311.2832 15.71426343336714
STARLINK-1347,45586,53.0394,0.0004965,15.66220182,366.3814953814235,373.0821291119837,1 45586U 20025BH  26138.46486414  .00033628  00000+0  32395-3 0  9990,2 45586  53.0394  48.9962 0004965  76.9757 283.1811 15.66220182337063
STARLINK-1364,45589,53.0452,0.0005462,15.60650805,382.0815706179428,389.4704692008918,1 45589U 20025BL  26138.90715954  .00043347  00000+0  51671-3 0  9993,2 45589  53.0452  83.3747 0005462  20.0310 340.0916 15.60650805336626
STARLINK-1365,45590,53.0465,0.0005546,15.55740154,396.2427902321497,403.76110195115507,1 45590U 20025BM  26138.91390435  .00064415  00000+0  91738-3 0  9996,2 45590  53.0465 116.1555 0005546  20.8478 339.2758 15.55740154336186
STARLINK-1443,45660,53.1352,0.0004449,15.30764645,470.48135298449506,476.577965978101,1 45660U 20035D   26138.88971766  .00031467  00000+0  10514-2 0  9996,2 45660  53.1352  99.6488 0004449  40.0580 320.0748 15.30764645329496
STARLINK-1446,45663,53.0229,0.0004526,15.46288811,424.5135128757529,430.6740603838107,1 45663U 20035G   26138.11328809  .00014042  00000+0  28852-3 0  9994,2 45663  53.0229  28.7835 0004526 110.5072 249.6421 15.46288811330405
STARLINK-1448,45665,53.0452,0.0007407,15.65647494,366.3778527552713,376.37658311772157,1 45665U 20035J   26138.94164787  .00036388  00000+0  35784-3 0  9999,2 45665  53.0452  70.6366 0007407  41.0337 319.1233 15.65647494329884
STARLINK-1451,45668,53.0513,0.0002808,15.13213854,524.4676838211517,528.3452754393129,1 45668U 20035M   26138.62444277  .00014996  00000+0  84961-3 0  9994,2 45668  53.0513 109.4653 0002808  54.8539 305.2716 15.13213854329324
STARLINK-1452,45669,53.0275,4.57e-05,15.55182775,401.3115420807262,401.9312119963888,1 45669U 20035N   26138.75816678  .00069638  00000+0  10116-2 0  9990,2 45669  53.0275  45.2243 0000457 124.7167 235.3886 15.55182775330230
STARLINK-1453,45670,53.0417,0.0003059,15.66091729,368.0365009246989,372.1650728027025,1 45670U 20035P   26138.91441095  .00040646  00000+0  39225-3 0  9998,2 45670  53.0417  31.1262 0003059 122.5432 237.5878 15.66091729330333
STARLINK-1454,45671,53.0448,0.0003322,15.64295587,373.0219208528033,377.50888140811367,1 45671U 20035Q   26138.54475617  .00092018  00000+0  94061-3 0  9994,2 45671  53.0448  73.6043 0003322  32.0100 328.1115 15.64295587329803
STARLINK-1456,45673,53.0432,0.0006934,15.62182663,376.6665236666813,386.04058516754685,1 45673U 20035S   26138.23868036  .00067044  00000+0  74770-3 0  9999,2 45673  53.0432  69.4766 0006934  78.8440 281.3353 15.62182663329857
STARLINK-1457,45674,53.0311,0.0008816,16.24057684,202.75097568132333,214.36463596294925,1 45674U 20035T   26138.91921355  .01664797  11917-4  59967-3 0  9993,2 45674  53.0311  22.9599 0008816 256.2865 103.7193 16.24057684330524
STARLINK-1458,45675,53.0479,0.0005605,15.53324595,403.22411733730223,410.8302864076013,1 45675U 20035U   26138.84962846  .00073025  00000+0  11336-2 0  9996,2 45675  53.0479  79.7622 0005605  33.7190 326.4175 15.53324595329722
STARLINK-1460,45676,53.1569,0.0004181,15.33170029,463.49973219852745,469.2231017748127,1 45676U 20035V   26138.90210499  .00034041  00000+0  10540-2 0  9995,2 45676  53.1569  98.3688 0004181  74.4308 285.7156 15.33170029329471
STARLINK-1392,45677,53.1527,0.000348,15.36273577,454.76155824667876,459.5189112020471,1 45677U 20035W   26138.31111564  .00033941  00000+0  95247-3 0  9990,2 45677  53.1527 100.2369 0003480  75.4693 284.6696 15.36273577329432
STARLINK-1394,45679,53.0416,0.000763,15.62078968,376.49497367112235,386.81041274295694,1 45679U 20035Y   26138.74926672  .00069033  00000+0  77244-3 0  9991,2 45679  53.0416  57.2222 0007630  83.2619 276.9262 15.62078968330065
STARLINK-1402,45685,53.0416,0.0007192,15.55226408,396.61865807621143,406.3704801252061,1 45685U 20035AE  26138.02103200  .00047195  00000+0  68803-3 0  9999,2 45685  53.0416  50.5176 0007192 100.4675 259.7146 15.55226408330104
STARLINK-1404,45686,53.1575,0.0005241,15.42094751,436.35462270811786,443.50131841025814,1 45686U 20035AF  26138.25533736  .00038791  00000+0  89797-3 0  9993,2 45686  53.1575  83.0174 0005241  86.9532 273.2074 15.42094751329675
STARLINK-1413,45689,53.1575,0.000334,15.33127021,464.2033145557134,468.7755250041264,1 45689U 20035AJ  26138.54959222  .00029096  00000+0  90439-3 0  9993,2 45689  53.1575  84.6548 0003340  93.5694 266.5690 15.33127021329598
